{
    "links": {
        "self": "http://www.neowsapp.com/rest/v1/neo/3471690?api_key=iIulBulltgU6a56xZRHN4H3l9WmuAYTsLGpBGhQ2"
    },
    "id": "3471690",
    "neo_reference_id": "3471690",
    "name": "(2009 UN1)",
    "designation": "2009 UN1",
    "nasa_jpl_url": "http://ssd.jpl.nasa.gov/sbdb.cgi?sstr=3471690",
    "absolute_magnitude_h": 25.3,
    "estimated_diameter": {
        "kilometers": {
            "estimated_diameter_min": 0.0231502122,
            "estimated_diameter_max": 0.0517654482
        },
        "meters": {
            "estimated_diameter_min": 23.150212221,
            "estimated_diameter_max": 51.7654482198
        },
        "miles": {
            "estimated_diameter_min": 0.0143848705,
            "estimated_diameter_max": 0.0321655483
        },
        "feet": {
            "estimated_diameter_min": 75.9521422633,
            "estimated_diameter_max": 169.8341531374
        }
    },
    "is_potentially_hazardous_asteroid": false,
    "close_approach_data": [
        {
            "close_approach_date": "2009-10-26",
            "close_approach_date_full": "2009-Oct-26 10:40",
            "epoch_date_close_approach": 1256553600000,
            "relative_velocity": {
                "kilometers_per_second": "6.3472464991",
                "kilometers_per_hour": "22850.0873966134",
                "miles_per_hour": "14198.1556937457"
            },
            "miss_distance": {
                "astronomical": "0.0730940892",
                "lunar": "28.4336006988",
                "kilometers": "10934720.053910004",
                "miles": "6794519.9754218952"
            },
            "orbiting_body": "Earth"
        }
    ],
    "orbital_data": {
        "orbit_id": "9",
        "orbit_determination_date": "2017-04-06 08:59:32",
        "first_observation_date": "2009-10-17",
        "last_observation_date": "2009-11-19",
        "data_arc_in_days": 33,
        "observations_used": 33,
        "orbit_uncertainty": "7",
        "minimum_orbit_intersection": ".0787657",
        "jupiter_tisserand_invariant": "3.281",
        "epoch_osculation": "2459000.5",
        "eccentricity": ".5585195027679959",
        "semi_major_axis": "2.420616834046274",
        "inclination": "1.488857436843938",
        "ascending_node_longitude": "1.527908466204258",
        "orbital_period": "1375.585219490727",
        "perihelion_distance": "1.068655123502909",
        "perihelion_argument": "39.71747106931373",
        "aphelion_distance": "3.77257854458964",
        "perihelion_time": "2459254.337496992635",
        "mean_anomaly": "293.5690020345085",
        "mean_motion": ".2617067956962203",
        "equinox": "J2000",
        "orbit_class": {
            "orbit_class_type": "AMO",
            "orbit_class_description": "Near-Earth asteroid orbits similar to that of 1221 Amor",
            "orbit_class_range": "1.017 AU < q (perihelion) < 1.3 AU"
        }
    },
    "is_sentry_object": false
}